CTC2_L_00295001-01
1 72064U 26355VN  26037.47793981  .00000000  00000+0  00000-0 0  9995
2 72064  85.0000   0.0000 0000000   0.0000   0.0000 13.81096363    15
CTC2_L_00295001-02
1 72065U 26571WJ  26037.47793981  .00000000  00000+0  00000-0 0  9996
2 72065  85.0000   0.0000 0000000   0.0000  90.0000 13.81096363    15
CTC2_L_00295001-03
1 72066U 24766XE  26037.47793981  .00000000  00000+0  00000-0 0  9991
2 72066  85.0000   0.0000 0000000   0.0000 180.0000 13.81096363    16
CTC2_L_00295001-04
1 72067U 26043XV  26037.47793981  .00000000  00000+0  00000-0 0  9992
2 72067  85.0000   0.0000 0000000   0.0000 270.0000 13.81096363    17
CTC2_L_00295002-01
1 72068U 23112YA  26037.47793981  .00000000  00000+0  00000-0 0  9997
2 72068  85.0000  12.0000 0000000   0.0000  12.0000 13.81096363    15
CTC2_L_00295002-02
1 72069U 22369VI  26037.47793981  .00000000  00000+0  00000-0 0  9991
2 72069  85.0000  12.0000 0000000   0.0000 102.0000 13.81096363    16
CTC2_L_00295002-03
1 72070U 24138RY  26037.47793981  .00000000  00000+0  00000-0 0  9999
2 72070  85.0000  12.0000 0000000   0.0000 192.0000 13.81096363    17
CTC2_L_00295002-04
1 72071U 26118Q   26037.47793981  .00000000  00000+0  00000-0 0  9990
2 72071  85.0000  12.0000 0000000   0.0000 282.0000 13.81096363    18
CTC2_L_00295003-01
1 72072U 24367BL  26037.47793981  .00000000  00000+0  00000-0 0  9995
2 72072  85.0000  24.0000 0000000   0.0000  24.0000 13.81096363    16
CTC2_L_00295003-02
1 72073U 26160GX  26037.47793981  .00000000  00000+0  00000-0 0  9999
2 72073  85.0000  24.0000 0000000   0.0000 114.0000 13.81096363    17
CTC2_L_00295003-03
1 72074U 25850UD  26037.47793981  .00000000  00000+0  00000-0 0  9995
2 72074  85.0000  24.0000 0000000   0.0000 204.0000 13.81096363    18
CTC2_L_00295003-04
1 72075U 22929LK  26037.47793981  .00000000  00000+0  00000-0 0  9990
2 72075  85.0000  24.0000 0000000   0.0000 294.0000 13.81096363    18
CTC2_L_00295004-01
1 72076U 24779ZL  26037.47793981  .00000000  00000+0  00000-0 0  9996
2 72076  85.0000  36.0000 0000000   0.0000  36.0000 13.81096363    16
CTC2_L_00295004-02
1 72077U 24996DC  26037.47793981  .00000000  00000+0  00000-0 0  9998
2 72077  85.0000  36.0000 0000000   0.0000 126.0000 13.81096363    17
CTC2_L_00295004-03
1 72078U 26523OT  26037.47793981  .00000000  00000+0  00000-0 0  9997
2 72078  85.0000  36.0000 0000000   0.0000 216.0000 13.81096363    18
CTC2_L_00295004-04
1 72079U 24162QA  26037.47793981  .00000000  00000+0  00000-0 0  9995
2 72079  85.0000  36.0000 0000000   0.0000 306.0000 13.81096363    19
CTC2_L_00295005-01
1 72080U 26777UY  26037.47793981  .00000000  00000+0  00000-0 0  9991
2 72080  85.0000  48.0000 0000000   0.0000  48.0000 13.81096363    17
CTC2_L_00295005-02
1 72081U 24591DK  26037.47793981  .00000000  00000+0  00000-0 0  9994
2 72081  85.0000  48.0000 0000000   0.0000 138.0000 13.81096363    18
CTC2_L_00295005-03
1 72082U 26295XJ  26037.47793981  .00000000  00000+0  00000-0 0  9998
2 72082  85.0000  48.0000 0000000   0.0000 228.0000 13.81096363    19
CTC2_L_00295005-04
1 72083U 22436GF  26037.47793981  .00000000  00000+0  00000-0 0  9992
2 72083  85.0000  48.0000 0000000   0.0000 318.0000 13.81096363    10
CTC2_L_00295006-01
1 72084U 23989ND  26037.47793981  .00000000  00000+0  00000-0 0  9997
2 72084  85.0000  60.0000 0000000   0.0000  60.0000 13.81096363    19
CTC2_L_00295006-02
1 72085U 22641CC  26037.47793981  .00000000  00000+0  00000-0 0  9992
2 72085  85.0000  60.0000 0000000   0.0000 150.0000 13.81096363    10
CTC2_L_00295006-03
1 72086U 22208PV  26037.47793981  .00000000  00000+0  00000-0 0  9992
2 72086  85.0000  60.0000 0000000   0.0000 240.0000 13.81096363    11
CTC2_L_00295006-04
1 72087U 25838GY  26037.47793981  .00000000  00000+0  00000-0 0  9995
2 72087  85.0000  60.0000 0000000   0.0000 330.0000 13.81096363    12
CTC2_L_00295007-01
1 72088U 26257QI  26037.47793981  .00000000  00000+0  00000-0 0  9992
2 72088  85.0000  72.0000 0000000   0.0000  72.0000 13.81096363    19
CTC2_L_00295007-02
1 72089U 24807TD  26037.47793981  .00000000  00000+0  00000-0 0  9992
2 72089  85.0000  72.0000 0000000   0.0000 162.0000 13.81096363    10
CTC2_L_00295007-03
1 72090U 22042LH  26037.47793981  .00000000  00000+0  00000-0 0  9993
2 72090  85.0000  72.0000 0000000   0.0000 252.0000 13.81096363    12
CTC2_L_00295007-04
1 72091U 23614FE  26037.47793981  .00000000  00000+0  00000-0 0  9990
2 72091  85.0000  72.0000 0000000   0.0000 342.0000 13.81096363    13
CTC2_L_00295008-01
1 72092U 22279NY  26037.47793981  .00000000  00000+0  00000-0 0  9997
2 72092  85.0000  84.0000 0000000   0.0000  84.0000 13.81096363    10
CTC2_L_00295008-02
1 72093U 23714JT  26037.47793981  .00000000  00000+0  00000-0 0  9993
2 72093  85.0000  84.0000 0000000   0.0000 174.0000 13.81096363    11
CTC2_L_00295008-03
1 72094U 23614IK  26037.47793981  .00000000  00000+0  00000-0 0  9993
2 72094  85.0000  84.0000 0000000   0.0000 264.0000 13.81096363    12
CTC2_L_00295008-04
1 72095U 26684GN  26037.47793981  .00000000  00000+0  00000-0 0  9994
2 72095  85.0000  84.0000 0000000   0.0000 354.0000 13.81096363    13
CTC2_L_00295009-01
1 72096U 23265EZ  26037.47793981  .00000000  00000+0  00000-0 0  9997
2 72096  85.0000  96.0000 0000000   0.0000  96.0000 13.81096363    10
CTC2_L_00295009-02
1 72097U 23546N   26037.47793981  .00000000  00000+0  00000-0 0  9990
2 72097  85.0000  96.0000 0000000   0.0000 186.0000 13.81096363    11
CTC2_L_00295009-03
1 72098U 23209ZI  26037.47793981  .00000000  00000+0  00000-0 0  9997
2 72098  85.0000  96.0000 0000000   0.0000 276.0000 13.81096363    12
CTC2_L_00295009-04
1 72099U 26682AF  26037.47793981  .00000000  00000+0  00000-0 0  9996
2 72099  85.0000  96.0000 0000000   0.0000   6.0000 13.81096363    14
CTC2_L_00295010-01
1 72100U 24798XI  26037.47793981  .00000000  00000+0  00000-0 0  9995
2 72100  85.0000 108.0000 0000000   0.0000 108.0000 13.81096363    14
CTC2_L_00295010-02
1 72101U 23983VZ  26037.47793981  .00000000  00000+0  00000-0 0  9991
2 72101  85.0000 108.0000 0000000   0.0000 198.0000 13.81096363    14
CTC2_L_00295010-03
1 72102U 23585HL  26037.47793981  .00000000  00000+0  00000-0 0  9990
2 72102  85.0000 108.0000 0000000   0.0000 288.0000 13.81096363    15
CTC2_L_00295010-04
1 72103U 25234XD  26037.47793981  .00000000  00000+0  00000-0 0  9994
2 72103  85.0000 108.0000 0000000   0.0000  18.0000 13.81096363    17
CTC2_L_00295011-01
1 72104U 24935PX  26037.47793981  .00000000  00000+0  00000-0 0  9992
2 72104  85.0000 120.0000 0000000   0.0000 120.0000 13.81096363    16
CTC2_L_00295011-02
1 72105U 23050ZB  26037.47793981  .00000000  00000+0  00000-0 0  9990
2 72105  85.0000 120.0000 0000000   0.0000 210.0000 13.81096363    17
CTC2_L_00295011-03
1 72106U 26666OF  26037.47793981  .00000000  00000+0  00000-0 0  9997
2 72106  85.0000 120.0000 0000000   0.0000 300.0000 13.81096363    18
CTC2_L_00295011-04
1 72107U 24205YR  26037.47793981  .00000000  00000+0  00000-0 0  9995
2 72107  85.0000 120.0000 0000000   0.0000  30.0000 13.81096363    19
CTC2_L_00295012-01
1 72108U 22355RI  26037.47793981  .00000000  00000+0  00000-0 0  9990
2 72108  85.0000 132.0000 0000000   0.0000 132.0000 13.81096363    16
CTC2_L_00295012-02
1 72109U 25292FO  26037.47793981  .00000000  00000+0  00000-0 0  9994
2 72109  85.0000 132.0000 0000000   0.0000 222.0000 13.81096363    17
CTC2_L_00295012-03
1 72110U 23239FJ  26037.47793981  .00000000  00000+0  00000-0 0  9995
2 72110  85.0000 132.0000 0000000   0.0000 312.0000 13.81096363    19
CTC2_L_00295012-04
1 72111U 26230NP  26037.47793981  .00000000  00000+0  00000-0 0  9990
2 72111  85.0000 132.0000 0000000   0.0000  42.0000 13.81096363    10
CTC2_L_00295013-01
1 72112U 25080MD  26037.47793981  .00000000  00000+0  00000-0 0  9993
2 72112  85.0000 144.0000 0000000   0.0000 144.0000 13.81096363    17
CTC2_L_00295013-02
1 72113U 25701ZG  26037.47793981  .00000000  00000+0  00000-0 0  9994
2 72113  85.0000 144.0000 0000000   0.0000 234.0000 13.81096363    18
CTC2_L_00295013-03
1 72114U 22499LG  26037.47793981  .00000000  00000+0  00000-0 0  9996
2 72114  85.0000 144.0000 0000000   0.0000 324.0000 13.81096363    19
CTC2_L_00295013-04
1 72115U 25542FP  26037.47793981  .00000000  00000+0  00000-0 0  9999
2 72115  85.0000 144.0000 0000000   0.0000  54.0000 13.81096363    10
CTC2_L_00295014-01
1 72116U 24283QB  26037.47793981  .00000000  00000+0  00000-0 0  9991
2 72116  85.0000 156.0000 0000000   0.0000 156.0000 13.81096363    17
CTC2_L_00295014-02
1 72117U 26160QX  26037.47793981  .00000000  00000+0  00000-0 0  9998
2 72117  85.0000 156.0000 0000000   0.0000 246.0000 13.81096363    18
CTC2_L_00295014-03
1 72118U 25078MZ  26037.47793981  .00000000  00000+0  00000-0 0  9996
2 72118  85.0000 156.0000 0000000   0.0000 336.0000 13.81096363    19
CTC2_L_00295014-04
1 72119U 25773DL  26037.47793981  .00000000  00000+0  00000-0 0  9999
2 72119  85.0000 156.0000 0000000   0.0000  66.0000 13.81096363    10
CTC2_L_00295015-01
1 72120U 22145GS  26037.47793981  .00000000  00000+0  00000-0 0  9991
2 72120  85.0000 168.0000 0000000   0.0000 168.0000 13.81096363    18
CTC2_L_00295015-02
1 72121U 24049KB  26037.47793981  .00000000  00000+0  00000-0 0  9997
2 72121  85.0000 168.0000 0000000   0.0000 258.0000 13.81096363    19
CTC2_L_00295015-03
1 72122U 22502WV  26037.47793981  .00000000  00000+0  00000-0 0  9990
2 72122  85.0000 168.0000 0000000   0.0000 348.0000 13.81096363    10
CTC2_L_00295015-04
1 72123U 26529YP  26037.47793981  .00000000  00000+0  00000-0 0  9994
2 72123  85.0000 168.0000 0000000   0.0000  78.0000 13.81096363    11
CTC2_L_00295016-01
1 72124U 23768TI  26037.47793981  .00000000  00000+0  00000-0 0  9997
2 72124  85.0000 180.0000 0000000   0.0000 180.0000 13.81096363    10
CTC2_L_00295016-02
1 72125U 23424XC  26037.47793981  .00000000  00000+0  00000-0 0  9997
2 72125  85.0000 180.0000 0000000   0.0000 270.0000 13.81096363    11
